EUTELSAT 8 WEST B       
1 40875U 15039B   25352.88447457 -.00000041  00000+0  00000+0 0  9990
2 40875   0.0634 354.5841 0004299 274.9248 128.6519  1.00270031 37847
EUTELSAT 9B             
1 41310U 16005A   25352.84105932  .00000087  00000+0  00000+0 0  9993
2 41310   0.0591  70.5014 0004465 203.9652 125.0024  1.00272233 36305
EUTELSAT 65 WEST A      
1 41382U 16014A   25352.82641256 -.00000251  00000+0  00000+0 0  9998
2 41382   0.0554 328.4571 0002305 309.5973  41.9178  1.00269647 35722
EUTELSAT 117 WEST B     
1 41589U 16038B   25352.95884007  .00000013  00000+0  00000+0 0  9995
2 41589   0.0143 155.6363 0000396 131.3163  29.0566  1.00271973 34850
EUTELSAT 172B           
1 42741U 17029B   25352.80203238  .00000020  00000+0  00000+0 0  9990
2 42741   0.0465 142.7922 0000225 297.5777 108.0155  1.00272425 31923
EUTELSAT 7C             
1 44334U 19034B   25352.62666839  .00000073  00000+0  00000+0 0  9996
2 44334   0.0730 178.0783 0003027  72.8613  69.1342  1.00271261  5025
EUTELSAT 5 WEST B       
1 44624U 19067A   25352.62432838 -.00000017  00000+0  00000+0 0  9993
2 44624   0.0695 331.3253 0003001 296.7511  39.1751  1.00271288 22624
EUTELSAT KONNECT        
1 45027U 20005B   25352.62675506  .00000075  00000+0  00000+0 0  9999
2 45027   0.0731  95.4615 0001306 190.4779  34.3804  1.00271854 22529
